
[
    {
        "placename": "Wild Pancakes, Inverness",
        "id": 100,
        "img": "../Assets/images/routes-1.jpg",
        "location": [
            57.48001, -4.22792
    ],
        "todo":
          "Breakfast spot to start off the trip ðŸ¥ž"
        
      },
    {
        "placename": "Kessock Bridge",
        "id": 101,
        "img": "../Assets/images/routes-1.jpg",
        "location": [
            57.49873, -4.22864
    ],
        "todo":
          "Way out of Inverness"
        
      },
      {
        "placename": "Dingwall",
        "id": 102,
        "img": "../Assets/images/travel-4.jpg",
        "location": [
           57.597321,
           -4.427970
        ],
        "todo": 
          "Second stop of the trip ðŸ§¨"
        
      },
      {
        "placename": "Ness Island",
        "id": 103,
        "img": "../Assets/images/travel-4.jpg",
        "location": [
          57.46437, -4.23012
        ],
        "todo": 
          "Photo Spot"
        
      },
      {
        "placename": "Victorian Market",
        "id": 104,
        "img": "../Assets/images/travel-4.jpg",
        "location": [
          57.47921, -4.22557
        ],
        "todo": 
          "Unique shopping point"
        
      },
      {
        "placename": "Glenmorangie distillery",
        "id": 105,
        "img": "../Assets/images/travel-4.jpg",
        "location": [
          57.82646, -4.07795
        ],
        "todo": 
          "Unique whiskey distillery"
        
      },
      {
        "placename": "loch fleet nature reserve",
        "id": 106,
        "img": "../Assets/images/travel-4.jpg",
        "location": [
          57.95601, -4.07207
        ],
        "todo": 
          "Beuatiful spot for wild camping"
        
      },
      {
        "placename": "castle of mey",
        "id": 107,
        "img": "../Assets/images/travel-4.jpg",
        "location": [
          57.95601, -4.07207
        ],
        "todo": 
          "Beuatiful spot"
        
      },
      {
        "placename": "zip line",
        "id": 108,
        "img": "../Assets/images/travel-4.jpg",
        "location": [
          58.54852, -4.6737
        ],
        "todo": 
          "Fun activity"
        
      },
      {
        "placename": "smoo cave",
        "id": 109,
        "img": "../Assets/images/travel-4.jpg",
        "location": [
          58.56372, -4.72052
        ],
        "todo": 
          "Fun activity"
        
      },
      {
        "placename": "Ardvreck Castle",
        "id": 110,
        "img": "../Assets/images/travel-4.jpg",
        "location": [
          58.16636, -4.99393
        ],
        "todo": 
          "Castle and Loch"
        
      },
      {
        "placename": "Corrishalloch Gorge",
        "id": 111,
        "img": "../Assets/images/travel-4.jpg",
        "location": [
          57.75915, -5.03439
        ],
        "todo": 
          "Hiking Spot"
        
      },
      {
        "placename": "Rogie Falls",
        "id": 112,
        "img": "../Assets/images/travel-4.jpg",
        "location": [
          57.58921, -4.60242
        ],
        "todo": 
          "Hiking Spot/ Photo point"
        
      },
      {
        "placename": "Culloden Battlefield",
        "id": 113,
        "img": "../Assets/images/travel-4.jpg",
        "location": [
          57.47782, -4.09564
        ],
        "todo": 
          "Historical Site"
        
      }
]